{
    "links": {
        "self": "http://www.neowsapp.com/rest/v1/neo/3595923?api_key=iIulBulltgU6a56xZRHN4H3l9WmuAYTsLGpBGhQ2"
    },
    "id": "3595923",
    "neo_reference_id": "3595923",
    "name": "(2012 BS1)",
    "designation": "2012 BS1",
    "nasa_jpl_url": "http://ssd.jpl.nasa.gov/sbdb.cgi?sstr=3595923",
    "absolute_magnitude_h": 28.4,
    "estimated_diameter": {
        "kilometers": {
            "estimated_diameter_min": 0.0055533491,
            "estimated_diameter_max": 0.0124176661
        },
        "meters": {
            "estimated_diameter_min": 5.5533491158,
            "estimated_diameter_max": 12.4176661257
        },
        "miles": {
            "estimated_diameter_min": 0.0034506901,
            "estimated_diameter_max": 0.0077159776
        },
        "feet": {
            "estimated_diameter_min": 18.2196499131,
            "estimated_diameter_max": 40.740375732
        }
    },
    "is_potentially_hazardous_asteroid": false,
    "close_approach_data": [
        {
            "close_approach_date": "1979-06-06",
            "close_approach_date_full": "1979-Jun-06 15:28",
            "epoch_date_close_approach": 297530880000,
            "relative_velocity": {
                "kilometers_per_second": "20.7289530138",
                "kilometers_per_hour": "74624.23084963",
                "miles_per_hour": "46368.5949965381"
            },
            "miss_distance": {
                "astronomical": "0.409810843",
                "lunar": "159.416417927",
                "kilometers": "61306829.21570441",
                "miles": "38094297.218604458"
            },
            "orbiting_body": "Earth"
        },
        {
            "close_approach_date": "2012-01-23",
            "close_approach_date_full": "2012-Jan-23 21:30",
            "epoch_date_close_approach": 1327354200000,
            "relative_velocity": {
                "kilometers_per_second": "8.8551020263",
                "kilometers_per_hour": "31878.367294632",
                "miles_per_hour": "19807.9777226007"
            },
            "miss_distance": {
                "astronomical": "0.0080186867",
                "lunar": "3.1192691263",
                "kilometers": "1199578.450517329",
                "miles": "745383.4852599802"
            },
            "orbiting_body": "Earth"
        },
        {
            "close_approach_date": "2012-01-24",
            "close_approach_date_full": "2012-Jan-24 03:47",
            "epoch_date_close_approach": 1327376820000,
            "relative_velocity": {
                "kilometers_per_second": "9.3868149329",
                "kilometers_per_hour": "33792.5337583108",
                "miles_per_hour": "20997.3663233238"
            },
            "miss_distance": {
                "astronomical": "0.0093401876",
                "lunar": "3.6333329764",
                "kilometers": "1397272.170360412",
                "miles": "868224.6665492056"
            },
            "orbiting_body": "Moon"
        },
        {
            "close_approach_date": "2012-06-13",
            "close_approach_date_full": "2012-Jun-13 23:16",
            "epoch_date_close_approach": 1339629360000,
            "relative_velocity": {
                "kilometers_per_second": "4.7067095646",
                "kilometers_per_hour": "16944.1544324571",
                "miles_per_hour": "10528.4386249898"
            },
            "miss_distance": {
                "astronomical": "0.4333553508",
                "lunar": "168.5752314612",
                "kilometers": "64829037.432782796",
                "miles": "40282895.9180267448"
            },
            "orbiting_body": "Earth"
        },
        {
            "close_approach_date": "2017-06-08",
            "close_approach_date_full": "2017-Jun-08 09:57",
            "epoch_date_close_approach": 1496915820000,
            "relative_velocity": {
                "kilometers_per_second": "21.1040712666",
                "kilometers_per_hour": "75974.6565598608",
                "miles_per_hour": "47207.6970163202"
            },
            "miss_distance": {
                "astronomical": "0.4231883422",
                "lunar": "164.6202651158",
                "kilometers": "63308074.601951114",
                "miles": "39337813.4390048132"
            },
            "orbiting_body": "Earth"
        }
    ],
    "orbital_data": {
        "orbit_id": "6",
        "orbit_determination_date": "2017-04-06 08:51:26",
        "first_observation_date": "2012-01-18",
        "last_observation_date": "2012-01-21",
        "data_arc_in_days": 3,
        "observations_used": 21,
        "orbit_uncertainty": "8",
        "minimum_orbit_intersection": ".00222635",
        "jupiter_tisserand_invariant": "4.582",
        "epoch_osculation": "2455946.5",
        "eccentricity": ".3819622179341796",
        "semi_major_axis": "1.441749344921938",
        "inclination": "1.076044152878656",
        "ascending_node_longitude": "117.3777270765451",
        "orbital_period": "632.3143980783376",
        "perihelion_distance": ".891055567430404",
        "perihelion_argument": "55.80377820736707",
        "aphelion_distance": "1.992443122413472",
        "perihelion_time": "2455989.075320381312",
        "mean_anomaly": "335.7602936389669",
        "mean_motion": ".5693370277413792",
        "equinox": "J2000",
        "orbit_class": {
            "orbit_class_type": "APO",
            "orbit_class_description": "Near-Earth asteroid orbits which cross the Earth’s orbit similar to that of 1862 Apollo",
            "orbit_class_range": "a (semi-major axis) > 1.0 AU; q (perihelion) < 1.017 AU"
        }
    },
    "is_sentry_object": false
}